[{"OBJECT_NAME":"SHIYAN-6 02 (SY-6 02)","OBJECT_ID":"2020-043A","EPOCH":"2026-03-09T23:39:34.759872","MEAN_MOTION":14.60858105,"ECCENTRICITY":0.01291304,"INCLINATION":98.1903,"RA_OF_ASC_NODE":81.3443,"ARG_OF_PERICENTER":176.0453,"MEAN_ANOMALY":184.1801,"EPHEMERIS_TYPE":0,"CLASSIFICATION_TYPE":"U","NORAD_CAT_ID":45859,"ELEMENT_SET_NO":999,"REV_AT_EPOCH":30237,"BSTAR":7.5299693e-5,"MEAN_MOTION_DOT":3.6e-6,"MEAN_MOTION_DDOT":0},{"OBJECT_NAME":"UNKNOWN","OBJECT_ID":"","EPOCH":"2026-03-09T13:25:19.726176","MEAN_MOTION":14.7583585,"ECCENTRICITY":0.0016207,"INCLINATION":74.0178,"RA_OF_ASC_NODE":150.9386,"ARG_OF_PERICENTER":98.3362,"MEAN_ANOMALY":261.965,"EPHEMERIS_TYPE":0,"CLASSIFICATION_TYPE":"U","NORAD_CAT_ID":87304,"ELEMENT_SET_NO":999,"REV_AT_EPOCH":65928,"BSTAR":0.00029188,"MEAN_MOTION_DOT":1.973e-5,"MEAN_MOTION_DDOT":0}]
